[{"OBJECT_NAME":"NOAA 1","OBJECT_ID":"1970-106A","EPOCH":"2026-03-04T13:35:23.142912","MEAN_MOTION":12.54049214,"ECCENTRICITY":0.00316988,"INCLINATION":101.3524,"RA_OF_ASC_NODE":102.8124,"ARG_OF_PERICENTER":190.9061,"MEAN_ANOMALY":337.7085,"EPHEMERIS_TYPE":0,"CLASSIFICATION_TYPE":"U","NORAD_CAT_ID":4793,"ELEMENT_SET_NO":999,"REV_AT_EPOCH":52757,"BSTAR":0.00011406886,"MEAN_MOTION_DOT":-2.4e-7,"MEAN_MOTION_DDOT":0},{"OBJECT_NAME":"NOAA 2 (ITOS-D)","OBJECT_ID":"1972-082A","EPOCH":"2026-03-04T01:21:23.720256","MEAN_MOTION":12.53211641,"ECCENTRICITY":0.0003992,"INCLINATION":102.0168,"RA_OF_ASC_NODE":80.4458,"ARG_OF_PERICENTER":15.8167,"MEAN_ANOMALY":351.5554,"EPHEMERIS_TYPE":0,"CLASSIFICATION_TYPE":"U","NORAD_CAT_ID":6235,"ELEMENT_SET_NO":999,"REV_AT_EPOCH":44178,"BSTAR":8.2812849e-5,"MEAN_MOTION_DOT":-3.3e-7,"MEAN_MOTION_DDOT":0},{"OBJECT_NAME":"NOAA 3","OBJECT_ID":"1973-086A","EPOCH":"2026-03-04T12:33:32.789088","MEAN_MOTION":12.40391639,"ECCENTRICITY":0.0006191,"INCLINATION":102.2909,"RA_OF_ASC_NODE":76.4514,"ARG_OF_PERICENTER":318.6513,"MEAN_ANOMALY":163.1797,"EPHEMERIS_TYPE":0,"CLASSIFICATION_TYPE":"U","NORAD_CAT_ID":6920,"ELEMENT_SET_NO":999,"REV_AT_EPOCH":36892,"BSTAR":5.9710377e-5,"MEAN_MOTION_DOT":-3.8e-7,"MEAN_MOTION_DDOT":0},{"OBJECT_NAME":"NOAA 4","OBJECT_ID":"1974-089A","EPOCH":"2026-03-04T12:58:29.146368","MEAN_MOTION":12.53201532,"ECCENTRICITY":0.00091583,"INCLINATION":102.0074,"RA_OF_ASC_NODE":75.2167,"ARG_OF_PERICENTER":38.5022,"MEAN_ANOMALY":83.9511,"EPHEMERIS_TYPE":0,"CLASSIFICATION_TYPE":"U","NORAD_CAT_ID":7529,"ELEMENT_SET_NO":999,"REV_AT_EPOCH":34641,"BSTAR":-7.302258e-6,"MEAN_MOTION_DOT":-4.8e-7,"MEAN_MOTION_DDOT":0},{"OBJECT_NAME":"NOAA 5","OBJECT_ID":"1976-077A","EPOCH":"2026-03-04T12:27:31.187808","MEAN_MOTION":12.37828226,"ECCENTRICITY":0.00097707,"INCLINATION":102.2953,"RA_OF_ASC_NODE":48.9989,"ARG_OF_PERICENTER":170.0665,"MEAN_ANOMALY":308.7234,"EPHEMERIS_TYPE":0,"CLASSIFICATION_TYPE":"U","NORAD_CAT_ID":9057,"ELEMENT_SET_NO":999,"REV_AT_EPOCH":24152,"BSTAR":3.7256183e-5,"MEAN_MOTION_DOT":-4.1e-7,"MEAN_MOTION_DDOT":0},{"OBJECT_NAME":"TIROS N","OBJECT_ID":"1978-096A","EPOCH":"2026-03-04T07:30:38.751264","MEAN_MOTION":14.19335797,"ECCENTRICITY":0.00104295,"INCLINATION":98.4638,"RA_OF_ASC_NODE":89.0712,"ARG_OF_PERICENTER":180.4332,"MEAN_ANOMALY":179.6838,"EPHEMERIS_TYPE":0,"CLASSIFICATION_TYPE":"U","NORAD_CAT_ID":11060,"ELEMENT_SET_NO":999,"REV_AT_EPOCH":66387,"BSTAR":0.00014127014,"MEAN_MOTION_DOT":2.55e-6,"MEAN_MOTION_DDOT":0},{"OBJECT_NAME":"NOAA 6","OBJECT_ID":"1979-057A","EPOCH":"2026-03-04T12:47:11.369472","MEAN_MOTION":14.35429324,"ECCENTRICITY":0.00094559,"INCLINATION":98.5757,"RA_OF_ASC_NODE":93.7175,"ARG_OF_PERICENTER":202.4931,"MEAN_ANOMALY":157.5841,"EPHEMERIS_TYPE":0,"CLASSIFICATION_TYPE":"U","NORAD_CAT_ID":11416,"ELEMENT_SET_NO":999,"REV_AT_EPOCH":43594,"BSTAR":0.00017206974,"MEAN_MOTION_DOT":4.5e-6,"MEAN_MOTION_DDOT":0},{"OBJECT_NAME":"NOAA 7","OBJECT_ID":"1981-059A","EPOCH":"2026-03-04T03:45:20.775744","MEAN_MOTION":14.17772006,"ECCENTRICITY":0.00110568,"INCLINATION":98.807,"RA_OF_ASC_NODE":131.2541,"ARG_OF_PERICENTER":203.8107,"MEAN_ANOMALY":156.2558,"EPHEMERIS_TYPE":0,"CLASSIFICATION_TYPE":"U","NORAD_CAT_ID":12553,"ELEMENT_SET_NO":999,"REV_AT_EPOCH":30986,"BSTAR":6.9801536e-5,"MEAN_MOTION_DOT":9.8e-7,"MEAN_MOTION_DDOT":0},{"OBJECT_NAME":"NOAA 8","OBJECT_ID":"1983-022A","EPOCH":"2026-03-04T12:22:35.636736","MEAN_MOTION":14.29764552,"ECCENTRICITY":0.00143824,"INCLINATION":98.7374,"RA_OF_ASC_NODE":76.296,"ARG_OF_PERICENTER":200.9088,"MEAN_ANOMALY":159.1507,"EPHEMERIS_TYPE":0,"CLASSIFICATION_TYPE":"U","NORAD_CAT_ID":13923,"ELEMENT_SET_NO":999,"REV_AT_EPOCH":23611,"BSTAR":0.00010001205,"MEAN_MOTION_DOT":2.12e-6,"MEAN_MOTION_DDOT":0},{"OBJECT_NAME":"NOAA 9","OBJECT_ID":"1984-123A","EPOCH":"2026-03-04T12:05:16.542816","MEAN_MOTION":14.17037042,"ECCENTRICITY":0.00136929,"INCLINATION":99.11,"RA_OF_ASC_NODE":87.6647,"ARG_OF_PERICENTER":287.4456,"MEAN_ANOMALY":196.0247,"EPHEMERIS_TYPE":0,"CLASSIFICATION_TYPE":"U","NORAD_CAT_ID":15427,"ELEMENT_SET_NO":999,"REV_AT_EPOCH":12859,"BSTAR":0.00010746636,"MEAN_MOTION_DOT":1.69e-6,"MEAN_MOTION_DDOT":0},{"OBJECT_NAME":"NOAA 10","OBJECT_ID":"1986-073A","EPOCH":"2026-03-04T12:17:50.381088","MEAN_MOTION":14.29141912,"ECCENTRICITY":0.0011175,"INCLINATION":98.6995,"RA_OF_ASC_NODE":56.9156,"ARG_OF_PERICENTER":305.7192,"MEAN_ANOMALY":164.4375,"EPHEMERIS_TYPE":0,"CLASSIFICATION_TYPE":"U","NORAD_CAT_ID":16969,"ELEMENT_SET_NO":999,"REV_AT_EPOCH":5446,"BSTAR":0.00011644,"MEAN_MOTION_DOT":2.51e-6,"MEAN_MOTION_DDOT":0},{"OBJECT_NAME":"NOAA 11","OBJECT_ID":"1988-089A","EPOCH":"2026-03-04T11:40:12.947808","MEAN_MOTION":14.15819384,"ECCENTRICITY":0.00100936,"INCLINATION":98.6091,"RA_OF_ASC_NODE":12.7023,"ARG_OF_PERICENTER":235.7614,"MEAN_ANOMALY":124.2605,"EPHEMERIS_TYPE":0,"CLASSIFICATION_TYPE":"U","NORAD_CAT_ID":19531,"ELEMENT_SET_NO":999,"REV_AT_EPOCH":93266,"BSTAR":6.7958789e-5,"MEAN_MOTION_DOT":9.1e-7,"MEAN_MOTION_DDOT":0},{"OBJECT_NAME":"NOAA 12","OBJECT_ID":"1991-032A","EPOCH":"2026-03-04T13:31:49.937088","MEAN_MOTION":14.2671552,"ECCENTRICITY":0.00132067,"INCLINATION":98.6147,"RA_OF_ASC_NODE":53.645,"ARG_OF_PERICENTER":338.787,"MEAN_ANOMALY":21.2761,"EPHEMERIS_TYPE":0,"CLASSIFICATION_TYPE":"U","NORAD_CAT_ID":21263,"ELEMENT_SET_NO":999,"REV_AT_EPOCH":81004,"BSTAR":8.0945033e-5,"MEAN_MOTION_DOT":1.52e-6,"MEAN_MOTION_DDOT":0},{"OBJECT_NAME":"NOAA 13","OBJECT_ID":"1993-050A","EPOCH":"2026-03-04T11:35:17.175552","MEAN_MOTION":14.13634393,"ECCENTRICITY":0.00105372,"INCLINATION":98.6928,"RA_OF_ASC_NODE":11.3754,"ARG_OF_PERICENTER":70.4184,"MEAN_ANOMALY":289.8126,"EPHEMERIS_TYPE":0,"CLASSIFICATION_TYPE":"U","NORAD_CAT_ID":22739,"ELEMENT_SET_NO":999,"REV_AT_EPOCH":67858,"BSTAR":0.0001213241,"MEAN_MOTION_DOT":1.86e-6,"MEAN_MOTION_DDOT":0},{"OBJECT_NAME":"NOAA 14","OBJECT_ID":"1994-089A","EPOCH":"2026-03-04T14:09:01.407168","MEAN_MOTION":14.14653927,"ECCENTRICITY":0.00100559,"INCLINATION":98.5014,"RA_OF_ASC_NODE":38.047,"ARG_OF_PERICENTER":30.4058,"MEAN_ANOMALY":329.7698,"EPHEMERIS_TYPE":0,"CLASSIFICATION_TYPE":"U","NORAD_CAT_ID":23455,"ELEMENT_SET_NO":999,"REV_AT_EPOCH":60841,"BSTAR":7.0825426e-5,"MEAN_MOTION_DOT":9.5e-7,"MEAN_MOTION_DDOT":0},{"OBJECT_NAME":"NOAA 15","OBJECT_ID":"1998-030A","EPOCH":"2026-03-04T13:55:59.268576","MEAN_MOTION":14.27110247,"ECCENTRICITY":0.00091641,"INCLINATION":98.5167,"RA_OF_ASC_NODE":86.9952,"ARG_OF_PERICENTER":296.9744,"MEAN_ANOMALY":63.0501,"EPHEMERIS_TYPE":0,"CLASSIFICATION_TYPE":"U","NORAD_CAT_ID":25338,"ELEMENT_SET_NO":999,"REV_AT_EPOCH":44637,"BSTAR":0.00010206424,"MEAN_MOTION_DOT":2.06e-6,"MEAN_MOTION_DDOT":0},{"OBJECT_NAME":"NOAA 16","OBJECT_ID":"2000-055A","EPOCH":"2026-03-04T13:46:03.837792","MEAN_MOTION":14.13896556,"ECCENTRICITY":0.00094013,"INCLINATION":98.4707,"RA_OF_ASC_NODE":83.3429,"ARG_OF_PERICENTER":238.3534,"MEAN_ANOMALY":121.6724,"EPHEMERIS_TYPE":0,"CLASSIFICATION_TYPE":"U","NORAD_CAT_ID":26536,"ELEMENT_SET_NO":999,"REV_AT_EPOCH":60894,"BSTAR":9.7945176e-5,"MEAN_MOTION_DOT":1.45e-6,"MEAN_MOTION_DDOT":0}]
